OBJECT_NAME,OBJECT_ID,EPOCH,MEAN_MOTION,ECCENTRICITY,INCLINATION,RA_OF_ASC_NODE,ARG_OF_PERICENTER,MEAN_ANOMALY,EPHEMERIS_TYPE,CLASSIFICATION_TYPE,NORAD_CAT_ID,ELEMENT_SET_NO,REV_AT_EPOCH,BSTAR,MEAN_MOTION_DOT,MEAN_MOTION_DDOT
FENGYUN 3D,2017-072A,2026-06-18T06:35:56.217408,14.19740463,.00025407,99.0127,143.7173,59.9756,300.1671,0,U,43010,999,44514,.20894535E-3,.396E-5,0
NOAA 20 (JPSS-1),2017-073A,2026-06-18T06:28:55.691328,14.19511917,.00003045,98.7770,108.7231,105.7450,254.3760,0,U,43013,999,44462,.41352957E-4,.43E-6,0
GOES 17,2018-022A,2026-06-18T03:15:26.771328,1.00269610,.000047,0.9404,85.6927,29.6875,110.3425,0,U,43226,999,3043,0,-.188E-5,0
SENTINEL-3B,2018-039A,2026-06-18T02:26:00.762144,14.26734945,.000072,98.6248,236.6205,90.6978,269.4285,0,U,43437,999,42425,.52122506E-4,.82E-6,0
FENGYUN 2H,2018-050A,2026-06-18T03:01:58.464768,1.00269466,.00019689,3.0340,79.0570,138.8523,173.3522,0,U,43491,999,2944,0,-.137E-5,0
METOP-C,2018-087A,2026-06-18T06:21:04.276512,14.21512426,.00018013,98.6645,228.8486,128.1100,232.0240,0,U,43689,999,39498,.60239395E-4,.88E-6,0
GEO-KOMPSAT-2A,2018-100A,2026-06-18T06:41:11.459040,1.00269412,.00018264,0.0497,158.5954,288.3889,48.0902,0,U,43823,999,2764,0,-.35E-5,0
METEOR-M2 2,2019-038A,2026-06-18T05:28:29.402112,14.24367467,.00020531,98.9142,156.5293,45.8699,314.2648,0,U,44387,999,36144,.20448063E-3,.427E-5,0
ARKTIKA-M 1,2021-016A,2026-06-17T11:46:36.471360,2.00622504,.72885287,63.2922,57.5948,269.9420,14.6012,0,U,47719,999,3879,0,-.21E-5,0
FENGYUN 3E,2021-062A,2026-06-18T06:12:31.673088,14.19905327,.00028415,98.7488,172.6549,84.1349,276.0151,0,U,49008,999,25673,.11700715E-3,.204E-5,0
GOES 18,2022-021A,2026-06-18T05:25:36.924384,1.00270996,.00003218,0.0081,71.8830,72.3935,66.5838,0,U,51850,999,660,0,.91E-6,0
NOAA 21 (JPSS-2),2022-150A,2026-06-18T07:16:14.970720,14.19565624,.00017335,98.7059,108.0735,151.3811,208.7460,0,U,54234,999,18670,.3984526E-4,.4E-6,0
METEOSAT-12 (MTG-I1),2022-170C,2026-06-18T04:21:53.150688,1.00272883,.00032126,0.7396,23.1663,71.1822,237.1409,0,U,54743,999,1298,0,-.14E-6,0
TIANMU-1 03,2023-039A,2026-06-18T06:41:39.352416,15.47310501,.00041696,97.5235,343.2902,95.9523,264.2202,0,U,55973,999,18100,.24360038E-3,.12342E-3,0
TIANMU-1 04,2023-039B,2026-06-18T06:25:53.721696,15.47908801,.00048377,97.5171,342.4327,92.9563,267.2240,0,U,55974,999,18101,.24155856E-3,.12497E-3,0
TIANMU-1 05,2023-039C,2026-06-18T06:14:01.784832,15.47236686,.00040062,97.5219,342.8847,112.5106,247.6568,0,U,55975,999,18098,.23130675E-3,.11683E-3,0
TIANMU-1 06,2023-039D,2026-06-18T06:30:51.418080,15.47812563,.00043729,97.5223,343.5339,107.9121,252.2606,0,U,55976,999,18101,.23867618E-3,.12304E-3,0
FENGYUN 3G,2023-055A,2026-06-18T01:43:26.785056,15.52665256,.0007014,49.9937,341.4619,300.0457,59.9814,0,U,56232,999,18014,.33953964E-3,.20951E-3,0
METEOR-M2 3,2023-091A,2026-06-18T07:01:49.211616,14.24046946,.00043947,98.6090,224.2486,152.5236,207.6176,0,U,57166,999,15467,.31096609E-4,.28E-6,0
TIANMU-1 07,2023-101A,2026-06-18T05:05:25.629216,15.29817505,.00041384,97.2587,219.8570,119.3341,240.8314,0,U,57399,999,16180,.17593857E-3,.5007E-4,0
TIANMU-1 08,2023-101B,2026-06-18T07:25:45.984000,15.29823083,.00056313,97.2576,219.7226,112.5994,247.5844,0,U,57400,999,16181,.17108578E-3,.4869E-4,0
TIANMU-1 09,2023-101C,2026-06-18T07:01:51.060576,15.29854526,.00046424,97.2534,219.1216,124.0918,236.0764,0,U,57401,999,16181,.17953857E-3,.5117E-4,0
TIANMU-1 10,2023-101D,2026-06-18T04:41:05.711136,15.29825125,.00062016,97.2613,220.0776,123.6381,236.5452,0,U,57402,999,16179,.18143215E-3,.5168E-4,0
FENGYUN 3F,2023-111A,2026-06-18T07:30:48.292416,14.19939318,.00015935,98.6836,239.3008,92.6759,267.4600,0,U,57490,999,14902,.42949618E-4,.48E-6,0
ARKTIKA-M 2,2023-198A,2026-06-09T18:48:45.592992,2.00606537,.69004015,63.2205,155.1874,267.4353,18.7899,0,U,58584,999,1817,0,.212E-5,0
TIANMU-1 11,2023-205A,2026-06-18T07:09:56.801376,15.27005118,.0008818,97.3442,190.8380,13.4537,346.6936,0,U,58645,999,13769,.16416322E-3,.4282E-4,0
TIANMU-1 12,2023-205B,2026-06-18T08:01:40.508832,15.26970290,.00065829,97.3431,190.6289,359.6462,0.4772,0,U,58646,999,13768,.17337719E-3,.4519E-4,0
TIANMU-1 13,2023-205C,2026-06-18T07:13:48.002592,15.26823251,.00057744,97.3459,190.8689,337.0657,23.0323,0,U,58647,999,13767,.16618286E-3,.4309E-4,0
TIANMU-1 14,2023-205D,2026-06-18T06:52:27.028416,15.26868056,.00067211,97.3395,190.0353,341.3417,18.7575,0,U,58648,999,13767,.17251612E-3,.4483E-4,0
TIANMU-1 19,2023-208A,2026-06-18T06:24:27.025344,15.31587056,.00037452,97.4510,285.5720,323.5175,36.5810,0,U,58660,999,13749,.20868271E-3,.6287E-4,0
