FENGYUN 3D              
1 43010U 17072A   26169.27495622  .00000396  00000+0  20895-3 0  9990
2 43010  99.0127 143.7173 0002540  59.9756 300.1671 14.19740463445141
NOAA 20 (JPSS-1)        
1 43013U 17073A   26169.27008902  .00000043  00000+0  41353-4 0  9997
2 43013  98.7770 108.7231 0000304 105.7450 254.3760 14.19511917444628
GOES 17                 
1 43226U 18022A   26169.13572652 -.00000188  00000+0  00000+0 0  9991
2 43226   0.9404  85.6927 0000470  29.6875 110.3425  1.00269610 30432
SENTINEL-3B             
1 43437U 18039A   26169.10139771  .00000082  00000+0  52123-4 0  9991
2 43437  98.6248 236.6205 0000720  90.6978 269.4285 14.26734945424250
FENGYUN 2H              
1 43491U 18050A   26169.12637112 -.00000137  00000+0  00000+0 0  9992
2 43491   3.0340  79.0570 0001968 138.8523 173.3522  1.00269466 29441
METOP-C                 
1 43689U 18087A   26169.26463283  .00000088  00000+0  60239-4 0  9991
2 43689  98.6645 228.8486 0001801 128.1100 232.0240 14.21512426394985
GEO-KOMPSAT-2A          
1 43823U 18100A   26169.27860485 -.00000350  00000+0  00000+0 0  9991
2 43823   0.0497 158.5954 0001826 288.3889  48.0902  1.00269412 27649
METEOR-M2 2             
1 44387U 19038A   26169.22811808  .00000427  00000+0  20448-3 0  9994
2 44387  98.9142 156.5293 0002053  45.8699 314.2648 14.24367467361443
ARKTIKA-M 1             
1 47719U 21016A   26168.49069990 -.00000210  00000+0  00000+0 0  9999
2 47719  63.2922  57.5948 7288528 269.9420  14.6012  2.00622504 38796
FENGYUN 3E              
1 49008U 21062A   26169.25869992  .00000204  00000+0  11701-3 0  9994
2 49008  98.7488 172.6549 0002841  84.1349 276.0151 14.19905327256731
GOES 18                 
1 51850U 22021A   26169.22612181  .00000091  00000+0  00000+0 0  9991
2 51850   0.0081  71.8830 0000321  72.3935  66.5838  1.00270996  6604
NOAA 21 (JPSS-2)        
1 54234U 22150A   26169.30295105  .00000040  00000+0  39845-4 0  9993
2 54234  98.7059 108.0735 0001733 151.3811 208.7460 14.19565624186708
METEOSAT-12 (MTG-I1)    
1 54743U 22170C   26169.18186517 -.00000014  00000+0  00000+0 0  9990
2 54743   0.7396  23.1663 0003212  71.1822 237.1409  1.00272883 12987
TIANMU-1 03             
1 55973U 23039A   26169.27892769  .00012342  00000+0  24360-3 0  9999
2 55973  97.5235 343.2902 0004169  95.9523 264.2202 15.47310501181003
TIANMU-1 04             
1 55974U 23039B   26169.26798289  .00012497  00000+0  24156-3 0  9995
2 55974  97.5171 342.4327 0004837  92.9563 267.2240 15.47908801181010
TIANMU-1 05             
1 55975U 23039C   26169.25974288  .00011683  00000+0  23131-3 0  9998
2 55975  97.5219 342.8847 0004006 112.5106 247.6568 15.47236686180980
TIANMU-1 06             
1 55976U 23039D   26169.27142845  .00012304  00000+0  23868-3 0  9995
2 55976  97.5223 343.5339 0004372 107.9121 252.2606 15.47812563181015
FENGYUN 3G              
1 56232U 23055A   26169.07183779  .00020951  00000+0  33954-3 0  9992
2 56232  49.9937 341.4619 0007014 300.0457  59.9814 15.52665256180143
METEOR-M2 3             
1 57166U 23091A   26169.29293069  .00000028  00000+0  31097-4 0  9997
2 57166  98.6090 224.2486 0004394 152.5236 207.6176 14.24046946154673
TIANMU-1 07             
1 57399U 23101A   26169.21210219  .00005007  00000+0  17594-3 0  9992
2 57399  97.2587 219.8570 0004138 119.3341 240.8314 15.29817505161804
TIANMU-1 08             
1 57400U 23101B   26169.30956000  .00004869  00000+0  17109-3 0  9997
2 57400  97.2576 219.7226 0005631 112.5994 247.5844 15.29823083161811
TIANMU-1 09             
1 57401U 23101C   26169.29295209  .00005117  00000+0  17954-3 0  9998
2 57401  97.2534 219.1216 0004642 124.0918 236.0764 15.29854526161814
TIANMU-1 10             
1 57402U 23101D   26169.19520499  .00005168  00000+0  18143-3 0  9997
2 57402  97.2613 220.0776 0006201 123.6381 236.5452 15.29825125161796
FENGYUN 3F              
1 57490U 23111A   26169.31305894  .00000048  00000+0  42950-4 0  9995
2 57490  98.6836 239.3008 0001593  92.6759 267.4600 14.19939318149027
ARKTIKA-M 2             
1 58584U 23198A   26160.78386103  .00000212  00000+0  00000+0 0  9997
2 58584  63.2205 155.1874 6900401 267.4353  18.7899  2.00606537 18179
TIANMU-1 11             
1 58645U 23205A   26169.29857409  .00004282  00000+0  16416-3 0  9994
2 58645  97.3442 190.8380 0008818  13.4537 346.6936 15.27005118137699
TIANMU-1 12             
1 58646U 23205B   26169.33449663  .00004519  00000+0  17338-3 0  9996
2 58646  97.3431 190.6289 0006582 359.6462   0.4772 15.26970290137685
TIANMU-1 13             
1 58647U 23205C   26169.30125003  .00004309  00000+0  16618-3 0  9990
2 58647  97.3459 190.8689 0005774 337.0657  23.0323 15.26823251137676
TIANMU-1 14             
1 58648U 23205D   26169.28642394  .00004483  00000+0  17252-3 0  9993
2 58648  97.3395 190.0353 0006721 341.3417  18.7575 15.26868056137673
TIANMU-1 19             
1 58660U 23208A   26169.26697946  .00006287  00000+0  20868-3 0  9992
2 58660  97.4510 285.5720 0003745 323.5175  36.5810 15.31587056137495
